{
  "type": "FeatureCollection",
  "features": [
    {
      "type": "Feature",
      "properties": {
        "norad_id": 36743,
        "name": "FENGYUN 1C DEB",
        "group": "fengyun-1c-debris",
        "lat": -0.5527874750295598,
        "lon": -148.4725556996421,
        "alt_km": 829.3650617898493,
        "timestamp": "2025-12-09T07:41:33.497592+00:00",
        "meta_object_name": "FENGYUN 1C DEB",
        "meta_object_id": "1999-025EBR",
        "meta_epoch": "2025-12-06T23:24:01.212192",
        "meta_mean_motion": 14.29041368,
        "meta_eccentricity": 0.00476846,
        "meta_inclination": 98.6555,
        "meta_ra_of_asc_node": 29.2835,
        "meta_arg_of_pericenter": 30.1026,
        "meta_mean_anomaly": 330.2881,
        "meta_ephemeris_type": 0,
        "meta_classification_type": "U",
        "meta_norad_cat_id": 36743,
        "meta_element_set_no": 999,
        "meta_rev_at_epoch": 60655,
        "meta_bstar": 0.0020129322,
        "meta_mean_motion_dot": 5.118e-05,
        "meta_mean_motion_ddot": 0,
        "tle_line1": "1 36743U 99025EBR 25340.97501403  .00005118  00000+0  20129-2 0  9991",
        "tle_line2": "2 36743  98.6555  29.2835 0047684  30.1026 330.2881 14.29041368606558"
      },
      "geometry": {
        "type": "Point",
        "coordinates": [
          -148.4725556996421,
          -0.5527874750295598
        ]
      }
    },
    {
      "type": "Feature",
      "properties": {
        "norad_id": 36986,
        "name": "FENGYUN 1C DEB",
        "group": "fengyun-1c-debris",
        "lat": -42.04946835542465,
        "lon": 57.589698826525094,
        "alt_km": 824.4556062686506,
        "timestamp": "2025-12-09T07:41:33.497602+00:00",
        "meta_object_name": "FENGYUN 1C DEB",
        "meta_object_id": "1999-025EBS",
        "meta_epoch": "2025-12-08T03:02:04.297632",
        "meta_mean_motion": 14.1452558,
        "meta_eccentricity": 0.00872891,
        "meta_inclination": 99.1431,
        "meta_ra_of_asc_node": 48.0152,
        "meta_arg_of_pericenter": 254.5991,
        "meta_mean_anomaly": 104.5525,
        "meta_ephemeris_type": 0,
        "meta_classification_type": "U",
        "meta_norad_cat_id": 36986,
        "meta_element_set_no": 999,
        "meta_rev_at_epoch": 81679,
        "meta_bstar": 0.0028814321,
        "meta_mean_motion_dot": 5.691e-05,
        "meta_mean_motion_ddot": 0,
        "tle_line1": "1 36986U 99025EBS 25342.12643863  .00005691  00000+0  28814-2 0  9991",
        "tle_line2": "2 36986  99.1431  48.0152 0087289 254.5991 104.5525 14.14525580816798"
      },
      "geometry": {
        "type": "Point",
        "coordinates": [
          57.589698826525094,
          -42.04946835542465
        ]
      }
    },
    {
      "type": "Feature",
      "properties": {
        "norad_id": 36987,
        "name": "FENGYUN 1C DEB",
        "group": "fengyun-1c-debris",
        "lat": -16.384793308670695,
        "lon": -132.95748116539835,
        "alt_km": 1009.8050275469077,
        "timestamp": "2025-12-09T07:41:33.497613+00:00",
        "meta_object_name": "FENGYUN 1C DEB",
        "meta_object_id": "1999-025EBT",
        "meta_epoch": "2025-12-07T09:23:12.430176",
        "meta_mean_motion": 13.45862139,
        "meta_eccentricity": 0.03196647,
        "meta_inclination": 100.8196,
        "meta_ra_of_asc_node": 221.7379,
        "meta_arg_of_pericenter": 59.5481,
        "meta_mean_anomaly": 303.6817,
        "meta_ephemeris_type": 0,
        "meta_classification_type": "U",
        "meta_norad_cat_id": 36987,
        "meta_element_set_no": 999,
        "meta_rev_at_epoch": 60805,
        "meta_bstar": 0.0017940249,
        "meta_mean_motion_dot": 1.408e-05,
        "meta_mean_motion_ddot": 0,
        "tle_line1": "1 36987U 99025EBT 25341.39111609  .00001408  00000+0  17940-2 0  9998",
        "tle_line2": "2 36987 100.8196 221.7379 0319664  59.5481 303.6817 13.45862139608051"
      },
      "geometry": {
        "type": "Point",
        "coordinates": [
          -132.95748116539835,
          -16.384793308670695
        ]
      }
    },
    {
      "type": "Feature",
      "properties": {
        "norad_id": 36990,
        "name": "FENGYUN 1C DEB",
        "group": "fengyun-1c-debris",
        "lat": 45.18769790252755,
        "lon": -73.71420000686246,
        "alt_km": 830.9319179035065,
        "timestamp": "2025-12-09T07:41:33.497624+00:00",
        "meta_object_name": "FENGYUN 1C DEB",
        "meta_object_id": "1999-025EBW",
        "meta_epoch": "2025-12-05T02:36:38.289600",
        "meta_mean_motion": 13.56914719,
        "meta_eccentricity": 0.0292772,
        "meta_inclination": 96.5839,
        "meta_ra_of_asc_node": 290.134,
        "meta_arg_of_pericenter": 44.0413,
        "meta_mean_anomaly": 318.3658,
        "meta_ephemeris_type": 0,
        "meta_classification_type": "U",
        "meta_norad_cat_id": 36990,
        "meta_element_set_no": 999,
        "meta_rev_at_epoch": 82784,
        "meta_bstar": 0.0013157618,
        "meta_mean_motion_dot": 1.212e-05,
        "meta_mean_motion_ddot": 0,
        "tle_line1": "1 36990U 99025EBW 25339.10877650  .00001212  00000+0  13158-2 0  9993",
        "tle_line2": "2 36990  96.5839 290.1340 0292772  44.0413 318.3658 13.56914719827842"
      },
      "geometry": {
        "type": "Point",
        "coordinates": [
          -73.71420000686246,
          45.18769790252755
        ]
      }
    },
    {
      "type": "Feature",
      "properties": {
        "norad_id": 36994,
        "name": "FENGYUN 1C DEB",
        "group": "fengyun-1c-debris",
        "lat": 31.086416928892554,
        "lon": 131.0712162259718,
        "alt_km": 999.4256782226621,
        "timestamp": "2025-12-09T07:41:33.497634+00:00",
        "meta_object_name": "FENGYUN 1C DEB",
        "meta_object_id": "1999-025ECA",
        "meta_epoch": "2025-12-08T03:20:52.745568",
        "meta_mean_motion": 13.9078309,
        "meta_eccentricity": 0.01147715,
        "meta_inclination": 98.6425,
        "meta_ra_of_asc_node": 304.711,
        "meta_arg_of_pericenter": 305.9095,
        "meta_mean_anomaly": 53.1456,
        "meta_ephemeris_type": 0,
        "meta_classification_type": "U",
        "meta_norad_cat_id": 36994,
        "meta_element_set_no": 999,
        "meta_rev_at_epoch": 80843,
        "meta_bstar": 0.0002375941,
        "meta_mean_motion_dot": 2.72e-06,
        "meta_mean_motion_ddot": 0,
        "tle_line1": "1 36994U 99025ECA 25342.13949937  .00000272  00000+0  23759-3 0  9996",
        "tle_line2": "2 36994  98.6425 304.7110 0114771 305.9095  53.1456 13.90783090808432"
      },
      "geometry": {
        "type": "Point",
        "coordinates": [
          131.0712162259718,
          31.086416928892554
        ]
      }
    },
    {
      "type": "Feature",
      "properties": {
        "norad_id": 36995,
        "name": "FENGYUN 1C DEB",
        "group": "fengyun-1c-debris",
        "lat": -58.98691214069359,
        "lon": 28.170816539637173,
        "alt_km": 879.7330830461406,
        "timestamp": "2025-12-09T07:41:33.497645+00:00",
        "meta_object_name": "FENGYUN 1C DEB",
        "meta_object_id": "1999-025ECB",
        "meta_epoch": "2025-12-08T10:02:19.805856",
        "meta_mean_motion": 14.04866469,
        "meta_eccentricity": 0.00387684,
        "meta_inclination": 98.3436,
        "meta_ra_of_asc_node": 221.4704,
        "meta_arg_of_pericenter": 323.8393,
        "meta_mean_anomaly": 36.0156,
        "meta_ephemeris_type": 0,
        "meta_classification_type": "U",
        "meta_norad_cat_id": 36995,
        "meta_element_set_no": 999,
        "meta_rev_at_epoch": 63496,
        "meta_bstar": 2.3580985e-05,
        "meta_mean_motion_dot": -1e-08,
        "meta_mean_motion_ddot": 0,
        "tle_line1": "1 36995U 99025ECB 25342.41828479 -.00000001  00000+0  23581-4 0  9990",
        "tle_line2": "2 36995  98.3436 221.4704 0038768 323.8393  36.0156 14.04866469634967"
      },
      "geometry": {
        "type": "Point",
        "coordinates": [
          28.170816539637173,
          -58.98691214069359
        ]
      }
    },
    {
      "type": "Feature",
      "properties": {
        "norad_id": 36996,
        "name": "FENGYUN 1C DEB",
        "group": "fengyun-1c-debris",
        "lat": -80.05097487345112,
        "lon": -99.71005955336811,
        "alt_km": 871.8883822024854,
        "timestamp": "2025-12-09T07:41:33.497656+00:00",
        "meta_object_name": "FENGYUN 1C DEB",
        "meta_object_id": "1999-025ECC",
        "meta_epoch": "2025-11-27T05:46:51.154176",
        "meta_mean_motion": 14.11461211,
        "meta_eccentricity": 0.02552856,
        "meta_inclination": 98.2247,
        "meta_ra_of_asc_node": 124.7451,
        "meta_arg_of_pericenter": 33.8599,
        "meta_mean_anomaly": 87.2847,
        "meta_ephemeris_type": 0,
        "meta_classification_type": "U",
        "meta_norad_cat_id": 36996,
        "meta_element_set_no": 999,
        "meta_rev_at_epoch": 59473,
        "meta_bstar": 0.00085126792,
        "meta_mean_motion_dot": 2.056e-05,
        "meta_mean_motion_ddot": 0,
        "tle_line1": "1 36996U 99025ECC 25331.24086984  .00002056  00000+0  85127-3 0  9991",
        "tle_line2": "2 36996  98.2247 124.7451 0255285  33.8599  87.2847 14.11461211594731"
      },
      "geometry": {
        "type": "Point",
        "coordinates": [
          -99.71005955336811,
          -80.05097487345112
        ]
      }
    }
  ]
}